{
    "links": {
        "self": "http://www.neowsapp.com/rest/v1/neo/3802446?api_key=iIulBulltgU6a56xZRHN4H3l9WmuAYTsLGpBGhQ2"
    },
    "id": "3802446",
    "neo_reference_id": "3802446",
    "name": "(2018 GF2)",
    "designation": "2018 GF2",
    "nasa_jpl_url": "http://ssd.jpl.nasa.gov/sbdb.cgi?sstr=3802446",
    "absolute_magnitude_h": 25.3,
    "estimated_diameter": {
        "kilometers": {
            "estimated_diameter_min": 0.0231502122,
            "estimated_diameter_max": 0.0517654482
        },
        "meters": {
            "estimated_diameter_min": 23.150212221,
            "estimated_diameter_max": 51.7654482198
        },
        "miles": {
            "estimated_diameter_min": 0.0143848705,
            "estimated_diameter_max": 0.0321655483
        },
        "feet": {
            "estimated_diameter_min": 75.9521422633,
            "estimated_diameter_max": 169.8341531374
        }
    },
    "is_potentially_hazardous_asteroid": false,
    "close_approach_data": [
        {
            "close_approach_date": "2018-04-24",
            "close_approach_date_full": "2018-Apr-24 04:53",
            "epoch_date_close_approach": 1524545580000,
            "relative_velocity": {
                "kilometers_per_second": "8.796162791",
                "kilometers_per_hour": "31666.1860476015",
                "miles_per_hour": "19676.1365471888"
            },
            "miss_distance": {
                "astronomical": "0.0707718552",
                "lunar": "27.5302516728",
                "kilometers": "10587318.793868424",
                "miles": "6578654.8422312912"
            },
            "orbiting_body": "Earth"
        }
    ],
    "orbital_data": {
        "orbit_id": "2",
        "orbit_determination_date": "2018-04-22 06:59:24",
        "first_observation_date": "2018-04-10",
        "last_observation_date": "2018-04-21",
        "data_arc_in_days": 11,
        "observations_used": 24,
        "orbit_uncertainty": "8",
        "minimum_orbit_intersection": ".0702867",
        "jupiter_tisserand_invariant": "3.654",
        "epoch_osculation": "2458220.5",
        "eccentricity": ".5071527079517704",
        "semi_major_axis": "2.00916835797883",
        "inclination": "6.302604923418452",
        "ascending_node_longitude": "177.461443369366",
        "orbital_period": "1040.214544183804",
        "perihelion_distance": ".9902131844988543",
        "perihelion_argument": "64.04766149490332",
        "aphelion_distance": "3.028123531458806",
        "perihelion_time": "2458256.151441065986",
        "mean_anomaly": "347.6616618605103",
        "mean_motion": ".3460824519450178",
        "equinox": "J2000",
        "orbit_class": {
            "orbit_class_type": "APO",
            "orbit_class_description": "Near-Earth asteroid orbits which cross the Earth’s orbit similar to that of 1862 Apollo",
            "orbit_class_range": "a (semi-major axis) > 1.0 AU; q (perihelion) < 1.017 AU"
        }
    },
    "is_sentry_object": false
}